{
  "type": "FeatureCollection",
  "features": [
    {
      "type": "Feature",
      "properties": {
        "norad_id": 66562,
        "name": "STARLINK-35579",
        "group": "last-30-days",
        "lat": 2.2537970839529367,
        "lon": -100.49391669972995,
        "alt_km": 413.8194305804045,
        "timestamp": "2025-12-19T10:49:59.921597+00:00",
        "meta_object_name": "STARLINK-35579",
        "meta_object_id": "2025-268F",
        "meta_epoch": "2025-12-18T15:31:33.105216",
        "meta_mean_motion": 15.50680629,
        "meta_eccentricity": 0.00020241,
        "meta_inclination": 43.0004,
        "meta_ra_of_asc_node": 86.6346,
        "meta_arg_of_pericenter": 264.3612,
        "meta_mean_anomaly": 95.7017,
        "meta_ephemeris_type": 0,
        "meta_classification_type": "U",
        "meta_norad_cat_id": 66562,
        "meta_element_set_no": 999,
        "meta_rev_at_epoch": 554,
        "meta_bstar": 0.0016821578,
        "meta_mean_motion_dot": 0.00099976,
        "meta_mean_motion_ddot": 0,
        "tle_line1": "1 66562U 25268F   25352.64691094  .00099976  00000+0  16822-2 0  9994",
        "tle_line2": "2 66562  43.0004  86.6346 0002024 264.3612  95.7017 15.50680629  5548"
      },
      "geometry": {
        "type": "Point",
        "coordinates": [
          -100.49391669972995,
          2.2537970839529367
        ]
      }
    },
    {
      "type": "Feature",
      "properties": {
        "norad_id": 66563,
        "name": "STARLINK-35437",
        "group": "last-30-days",
        "lat": -0.22901292560571768,
        "lon": -97.83691926042054,
        "alt_km": 414.3828382877309,
        "timestamp": "2025-12-19T10:49:59.921607+00:00",
        "meta_object_name": "STARLINK-35437",
        "meta_object_id": "2025-268G",
        "meta_epoch": "2025-12-18T13:57:47.901024",
        "meta_mean_motion": 15.50617028,
        "meta_eccentricity": 0.0001369,
        "meta_inclination": 43.0004,
        "meta_ra_of_asc_node": 87.0056,
        "meta_arg_of_pericenter": 262.6429,
        "meta_mean_anomaly": 97.4275,
        "meta_ephemeris_type": 0,
        "meta_classification_type": "U",
        "meta_norad_cat_id": 66563,
        "meta_element_set_no": 999,
        "meta_rev_at_epoch": 553,
        "meta_bstar": 0.0010541152,
        "meta_mean_motion_dot": 0.00062074,
        "meta_mean_motion_ddot": 0,
        "tle_line1": "1 66563U 25268G   25352.58180441  .00062074  00000+0  10541-2 0  9998",
        "tle_line2": "2 66563  43.0004  87.0056 0001369 262.6429  97.4275 15.50617028  5537"
      },
      "geometry": {
        "type": "Point",
        "coordinates": [
          -97.83691926042054,
          -0.22901292560571768
        ]
      }
    },
    {
      "type": "Feature",
      "properties": {
        "norad_id": 66564,
        "name": "STARLINK-35358",
        "group": "last-30-days",
        "lat": -1.5024348595385006,
        "lon": -96.47316308661847,
        "alt_km": 414.52066026029934,
        "timestamp": "2025-12-19T10:49:59.921617+00:00",
        "meta_object_name": "STARLINK-35358",
        "meta_object_id": "2025-268H",
        "meta_epoch": "2025-12-18T15:30:03.242304",
        "meta_mean_motion": 15.50615887,
        "meta_eccentricity": 0.00033737,
        "meta_inclination": 43.002,
        "meta_ra_of_asc_node": 86.6273,
        "meta_arg_of_pericenter": 264.8662,
        "meta_mean_anomaly": 95.1814,
        "meta_ephemeris_type": 0,
        "meta_classification_type": "U",
        "meta_norad_cat_id": 66564,
        "meta_element_set_no": 999,
        "meta_rev_at_epoch": 554,
        "meta_bstar": 0.0010772954,
        "meta_mean_motion_dot": 0.00063464,
        "meta_mean_motion_ddot": 0,
        "tle_line1": "1 66564U 25268H   25352.64587086  .00063464  00000+0  10773-2 0  9993",
        "tle_line2": "2 66564  43.0020  86.6273 0003373 264.8662  95.1814 15.50615887  5548"
      },
      "geometry": {
        "type": "Point",
        "coordinates": [
          -96.47316308661847,
          -1.5024348595385006
        ]
      }
    },
    {
      "type": "Feature",
      "properties": {
        "norad_id": 66565,
        "name": "STARLINK-35893",
        "group": "last-30-days",
        "lat": -2.882136568553338,
        "lon": -94.99576791090058,
        "alt_km": 414.53458696537655,
        "timestamp": "2025-12-19T10:49:59.921627+00:00",
        "meta_object_name": "STARLINK-35893",
        "meta_object_id": "2025-268J",
        "meta_epoch": "2025-12-18T13:56:48.664320",
        "meta_mean_motion": 15.50624497,
        "meta_eccentricity": 0.0001387,
        "meta_inclination": 43.0015,
        "meta_ra_of_asc_node": 86.9997,
        "meta_arg_of_pericenter": 260.7796,
        "meta_mean_anomaly": 99.2908,
        "meta_ephemeris_type": 0,
        "meta_classification_type": "U",
        "meta_norad_cat_id": 66565,
        "meta_element_set_no": 999,
        "meta_rev_at_epoch": 553,
        "meta_bstar": 0.0012916172,
        "meta_mean_motion_dot": 0.00076297,
        "meta_mean_motion_ddot": 0,
        "tle_line1": "1 66565U 25268J   25352.58111880  .00076297  00000+0  12916-2 0  9991",
        "tle_line2": "2 66565  43.0015  86.9997 0001387 260.7796  99.2908 15.50624497  5530"
      },
      "geometry": {
        "type": "Point",
        "coordinates": [
          -94.99576791090058,
          -2.882136568553338
        ]
      }
    },
    {
      "type": "Feature",
      "properties": {
        "norad_id": 66566,
        "name": "STARLINK-35871",
        "group": "last-30-days",
        "lat": -4.079118341170901,
        "lon": -93.70768037676409,
        "alt_km": 414.89764937744167,
        "timestamp": "2025-12-19T10:49:59.921637+00:00",
        "meta_object_name": "STARLINK-35871",
        "meta_object_id": "2025-268K",
        "meta_epoch": "2025-12-18T15:29:04.309728",
        "meta_mean_motion": 15.5058288,
        "meta_eccentricity": 0.00022304,
        "meta_inclination": 43.0022,
        "meta_ra_of_asc_node": 86.6206,
        "meta_arg_of_pericenter": 269.4272,
        "meta_mean_anomaly": 90.6333,
        "meta_ephemeris_type": 0,
        "meta_classification_type": "U",
        "meta_norad_cat_id": 66566,
        "meta_element_set_no": 999,
        "meta_rev_at_epoch": 554,
        "meta_bstar": 0.0013881829,
        "meta_mean_motion_dot": 0.00081968,
        "meta_mean_motion_ddot": 0,
        "tle_line1": "1 66566U 25268K   25352.64518877  .00081968  00000+0  13882-2 0  9990",
        "tle_line2": "2 66566  43.0022  86.6206 0002230 269.4272  90.6333 15.50582880  5549"
      },
      "geometry": {
        "type": "Point",
        "coordinates": [
          -93.70768037676409,
          -4.079118341170901
        ]
      }
    },
    {
      "type": "Feature",
      "properties": {
        "norad_id": 66567,
        "name": "STARLINK-35825",
        "group": "last-30-days",
        "lat": -5.549161466118215,
        "lon": -92.11700829644646,
        "alt_km": 414.5227142161357,
        "timestamp": "2025-12-19T10:49:59.921649+00:00",
        "meta_object_name": "STARLINK-35825",
        "meta_object_id": "2025-268L",
        "meta_epoch": "2025-12-18T15:28:34.622688",
        "meta_mean_motion": 15.50645931,
        "meta_eccentricity": 0.00022016,
        "meta_inclination": 43.0001,
        "meta_ra_of_asc_node": 86.6183,
        "meta_arg_of_pericenter": 261.8359,
        "meta_mean_anomaly": 98.2251,
        "meta_ephemeris_type": 0,
        "meta_classification_type": "U",
        "meta_norad_cat_id": 66567,
        "meta_element_set_no": 999,
        "meta_rev_at_epoch": 554,
        "meta_bstar": 0.0018159536,
        "meta_mean_motion_dot": 0.00107933,
        "meta_mean_motion_ddot": 0,
        "tle_line1": "1 66567U 25268L   25352.64484517  .00107933  00000+0  18160-2 0  9999",
        "tle_line2": "2 66567  43.0001  86.6183 0002201 261.8359  98.2251 15.50645931  5541"
      },
      "geometry": {
        "type": "Point",
        "coordinates": [
          -92.11700829644646,
          -5.549161466118215
        ]
      }
    },
    {
      "type": "Feature",
      "properties": {
        "norad_id": 66568,
        "name": "STARLINK-35803",
        "group": "last-30-days",
        "lat": -6.610088937775379,
        "lon": -90.96165061696202,
        "alt_km": 414.82192642477276,
        "timestamp": "2025-12-19T10:49:59.921662+00:00",
        "meta_object_name": "STARLINK-35803",
        "meta_object_id": "2025-268M",
        "meta_epoch": "2025-12-18T15:28:06.756096",
        "meta_mean_motion": 15.50581871,
        "meta_eccentricity": 0.00021705,
        "meta_inclination": 43.0002,
        "meta_ra_of_asc_node": 86.6159,
        "meta_arg_of_pericenter": 258.5996,
        "meta_mean_anomaly": 101.4621,
        "meta_ephemeris_type": 0,
        "meta_classification_type": "U",
        "meta_norad_cat_id": 66568,
        "meta_element_set_no": 999,
        "meta_rev_at_epoch": 554,
        "meta_bstar": 0.0014514505,
        "meta_mean_motion_dot": 0.00085758,
        "meta_mean_motion_ddot": 0,
        "tle_line1": "1 66568U 25268M   25352.64452264  .00085758  00000+0  14515-2 0  9994",
        "tle_line2": "2 66568  43.0002  86.6159 0002170 258.5996 101.4621 15.50581871  5541"
      },
      "geometry": {
        "type": "Point",
        "coordinates": [
          -90.96165061696202,
          -6.610088937775379
        ]
      }
    }
  ]
}